LANDSAT 9               
1 49260U 21088A   23323.14991290  .00000378  00000+0  94020-4 0  9994
2 49260  98.2144  31.0606 0001237  90.2617 269.8723 14.57094433113951
